CAS-2T & KS-1Q          
1 41847U 16066G   20216.10303374  .00000059  00000-0  18359-4 0  9999
2 41847  98.6505 267.0789 0366787  89.9488 274.3720 14.38081786196121
NAYIF-1 (EO-88)         
1 42017U 17008BX  20216.15468382  .00001381  00000-0  55498-4 0  9996
2 42017  97.3574 283.0319 0007127 144.5698 215.6015 15.26605770192675
MAX VALIER SAT          
1 42778U 17036P   20216.39563707  .00000796  00000-0  37048-4 0  9994
2 42778  97.3017 268.7260 0011257 209.7896 150.2701 15.22687683172874
RADFXSAT (FOX-1B)       
1 43017U 17073E   20215.73340368  .00000231  00000-0  24042-4 0  9999
2 43017  97.7199 126.1835 0255330 259.5412  97.6938 14.78983112146008
FOX-1D (AO-92)          
1 43137U 18004AC  20216.09700219  .00000842  00000-0  37502-4 0  9995
2 43137  97.4436 286.9387 0007560 247.6965 112.3471 15.24195535142144
DIWATA-2B               
1 43678U 18084H   20216.49852266  .00000295  00000-0  35065-4 0  9991
2 43678  97.8892 334.9132 0010587  29.0418 331.1403 14.91643491 96038
ES'HAIL 2               
1 43700U 18090A   20216.29097125  .00000126  00000-0  00000+0 0  9996
2 43700   0.0161  76.3469 0001998  78.0503 288.4137  1.00272167  6420
FOX-1CLIFF (AO-95)      
1 43770U 18099N   20216.15951739  .00000346  00000-0  36823-4 0  9998
2 43770  97.7038 286.7212 0015669  46.0429 314.2081 14.95016544 90891
ITASAT 1                
1 43786U 18099AE  20215.74442295  .00000557  00000-0  55577-4 0  9992
2 43786  97.7054 286.7661 0016092  41.2987 318.9448 14.95349608 90855
JY1SAT (JO-97)          
1 43803U 18099AX  20216.15485896  .00000582  00000-0  57584-4 0  9990
2 43803  97.7015 286.9774 0016106  40.3910 319.8504 14.95533663 90917
PSAT2 (NO-104)          
1 44354U 19036R   20215.78258890  .00013383  00000-0  19433-3 0  9997
2 44354  28.5296  76.2124 0361798  86.0216 278.1644 15.04182203 60793
BRICSAT2 (NO-103)       
1 44355U 19036S   20214.89059514  .00027135  00000-0  37525-3 0  9993
2 44355  28.5296  70.8874 0338141  94.6295 269.2993 15.10187599 60770
JAISAT-1                
1 44419U 19038F   20215.78989619  .00000717  00000-0  44367-4 0  9993
2 44419  97.5417 176.8526 0020897 335.4640  24.5595 15.12842934 59602
DUCHIFAT-3              
1 44854U 19089C   20216.25298183  .00000287  00000-0  29597-4 0  9994
2 44854  36.9678 181.7731 0007818  74.5831 285.5765 14.99093120 35325
RS-44 & BREEZE-KM R/B   
1 44909U 19096E   20216.42499418  .00000012  00000-0 -50088-5 0  9993
2 44909  82.5242 324.1025 0218451 116.6075 245.7589 12.79707952 28194
ORBITAL FACTORY 2 (OF-2)
1 45113U 19071C   20216.08156383  .00001260  00000-0  49825-4 0  9998
2 45113  51.6443 138.2781 0012481 224.0020 135.9969 15.33485624 28288
HUSKYSAT-1              
1 45119U 19071J   20215.79289422  .00001390  00000-0  53432-4 0  9995
2 45119  51.6437 139.3513 0011771 219.0571 140.9562 15.33691437 28239
